EWS-G2 (GOES 15)        
1 36411U 10008A   25172.59180932  .00000048  00000+0  00000+0 0  9998
2 36411   0.3441  85.4542 0002571 112.1802 346.7324  1.00269991 56026
GOES 16                 
1 41866U 16071A   25172.48129448 -.00000080  00000+0  00000+0 0  9994
2 41866   0.0579 246.9634 0000687 260.9005 190.5912  1.00270662 31482
GOES 17                 
1 43226U 18022A   25172.44289435 -.00000129  00000+0  00000+0 0  9997
2 43226   0.0500 150.5299 0000789  66.1729 112.2634  1.00422124 26801
GOES 18                 
1 51850U 22021A   25172.76044471  .00000106  00000+0  00000+0 0  9991
2 51850   0.0454 162.0266 0000423  40.0764 204.8509  1.00272166 12193
GOES 19                 
1 60133U 24119A   25172.55834344 -.00000238  00000+0  00000+0 0  9995
2 60133   0.0530 149.7240 0000417  65.4222 180.6541  1.00270045  3347
