[
  {
    "OBJECT_NAME": "EWS-G2 (GOES 15)",
    "OBJECT_ID": "2010-008A",
    "EPOCH": "2025-06-21T14:12:12.325248",
    "MEAN_MOTION": 1.00269991,
    "ECCENTRICITY": 0.0002571,
    "INCLINATION": 0.3441,
    "RA_OF_ASC_NODE": 85.4542,
    "ARG_OF_PERICENTER": 112.1802,
    "MEAN_ANOMALY": 346.7324,
    "EPHEMERIS_TYPE": 0,
    "CLASSIFICATION_TYPE": "U",
    "NORAD_CAT_ID": 36411,
    "ELEMENT_SET_NO": 999,
    "REV_AT_EPOCH": 5602,
    "BSTAR": 0,
    "MEAN_MOTION_DOT": 4.8e-07,
    "MEAN_MOTION_DDOT": 0
  },
  {
    "OBJECT_NAME": "GOES 16",
    "OBJECT_ID": "2016-071A",
    "EPOCH": "2025-06-21T11:33:03.843072",
    "MEAN_MOTION": 1.00270662,
    "ECCENTRICITY": 6.87e-05,
    "INCLINATION": 0.0579,
    "RA_OF_ASC_NODE": 246.9634,
    "ARG_OF_PERICENTER": 260.9005,
    "MEAN_ANOMALY": 190.5912,
    "EPHEMERIS_TYPE": 0,
    "CLASSIFICATION_TYPE": "U",
    "NORAD_CAT_ID": 41866,
    "ELEMENT_SET_NO": 999,
    "REV_AT_EPOCH": 3148,
    "BSTAR": 0,
    "MEAN_MOTION_DOT": -8e-07,
    "MEAN_MOTION_DDOT": 0
  },
  {
    "OBJECT_NAME": "GOES 17",
    "OBJECT_ID": "2018-022A",
    "EPOCH": "2025-06-21T10:37:46.071840",
    "MEAN_MOTION": 1.00422124,
    "ECCENTRICITY": 7.89e-05,
    "INCLINATION": 0.05,
    "RA_OF_ASC_NODE": 150.5299,
    "ARG_OF_PERICENTER": 66.1729,
    "MEAN_ANOMALY": 112.2634,
    "EPHEMERIS_TYPE": 0,
    "CLASSIFICATION_TYPE": "U",
    "NORAD_CAT_ID": 43226,
    "ELEMENT_SET_NO": 999,
    "REV_AT_EPOCH": 2680,
    "BSTAR": 0,
    "MEAN_MOTION_DOT": -1.29e-06,
    "MEAN_MOTION_DDOT": 0
  },
  {
    "OBJECT_NAME": "GOES 18",
    "OBJECT_ID": "2022-021A",
    "EPOCH": "2025-06-21T18:15:02.422944",
    "MEAN_MOTION": 1.00272166,
    "ECCENTRICITY": 4.23e-05,
    "INCLINATION": 0.0454,
    "RA_OF_ASC_NODE": 162.0266,
    "ARG_OF_PERICENTER": 40.0764,
    "MEAN_ANOMALY": 204.8509,
    "EPHEMERIS_TYPE": 0,
    "CLASSIFICATION_TYPE": "U",
    "NORAD_CAT_ID": 51850,
    "ELEMENT_SET_NO": 999,
    "REV_AT_EPOCH": 1219,
    "BSTAR": 0,
    "MEAN_MOTION_DOT": 1.06e-06,
    "MEAN_MOTION_DDOT": 0
  },
  {
    "OBJECT_NAME": "GOES 19",
    "OBJECT_ID": "2024-119A",
    "EPOCH": "2025-06-21T13:24:00.873216",
    "MEAN_MOTION": 1.00270045,
    "ECCENTRICITY": 4.17e-05,
    "INCLINATION": 0.053,
    "RA_OF_ASC_NODE": 149.724,
    "ARG_OF_PERICENTER": 65.4222,
    "MEAN_ANOMALY": 180.6541,
    "EPHEMERIS_TYPE": 0,
    "CLASSIFICATION_TYPE": "U",
    "NORAD_CAT_ID": 60133,
    "ELEMENT_SET_NO": 999,
    "REV_AT_EPOCH": 334,
    "BSTAR": 0,
    "MEAN_MOTION_DOT": -2.38e-06,
    "MEAN_MOTION_DDOT": 0
  }
]